start=new Date('2022-04-07T00:00:00.000Z').valueOf();
sats=[{"EPOCH":"2022-04-06T22:00:00.999936","OBJECT_TYPE":"PAYLOAD","MEAN_MOTION_DDOT":"0.0000000000000","ARG_OF_PERICENTER":"69.7456","OBJECT_ID":"2022-025AK","CLASSIFICATION_TYPE":"U","FILE":"3391320","RA_OF_ASC_NODE":"359.5251","MEAN_ANOMALY":"112.6530","PERIAPSIS":"371.926","INCLINATION":"53.2173","TLE_LINE1":"1 51989U 22025AK  22096.91667824 -.00713288  00000-0 -77195-2 0  9997","APOAPSIS":"373.649","PERIOD":"92.004","TIME_SYSTEM":"UTC","OBJECT_NAME":"STARLINK-3642","ECCENTRICITY":"0.00012760","MEAN_MOTION_DOT":"-0.00713288","MEAN_ELEMENT_THEORY":"SGP4","EPHEMERIS_TYPE":"0","SITE":"AFETR","RCS_SIZE":"LARGE","TLE_LINE2":"2 51989  53.2173 359.5251 0001276  69.7456 112.6530 15.65157480  3708","ELEMENT_SET_NO":"999","LAUNCH_DATE":"2022-03-09","CENTER_NAME":"EARTH","NORAD_CAT_ID":"51989","REF_FRAME":"TEME","BSTAR":"-0.00771950000000","GP_ID":"200628472","REV_AT_EPOCH":"370","MEAN_MOTION":"15.65157480","COUNTRY_CODE":"US","DECAY_DATE":null,"SEMIMAJOR_AXIS":"6750.923"},{"REV_AT_EPOCH":"370","GP_ID":"200627947","MEAN_MOTION":"15.73215642","DECAY_DATE":null,"COUNTRY_CODE":"US","SEMIMAJOR_AXIS":"6727.851","MEAN_MOTION_DOT":"-0.00021937","RCS_SIZE":"LARGE","MEAN_ELEMENT_THEORY":"SGP4","EPHEMERIS_TYPE":"0","SITE":"AFETR","LAUNCH_DATE":"2022-03-09","CENTER_NAME":"EARTH","TLE_LINE2":"2 51990  53.2172 359.4183 0001265 117.2346 145.5762 15.73215642  3703","ELEMENT_SET_NO":"999","BSTAR":"-0.00015219000000","NORAD_CAT_ID":"51990","REF_FRAME":"TEME","TLE_LINE1":"1 51990U 22025AL  22096.91667824 -.00021937  00000-0 -15219-3 0  9992","TIME_SYSTEM":"UTC","APOAPSIS":"350.567","PERIOD":"91.532","ECCENTRICITY":"0.00012650","OBJECT_NAME":"STARLINK-3657","EPOCH":"2022-04-06T22:00:00.999936","OBJECT_TYPE":"PAYLOAD","ARG_OF_PERICENTER":"117.2346","MEAN_MOTION_DDOT":"0.0000000000000","CLASSIFICATION_TYPE":"U","FILE":"3391320","OBJECT_ID":"2022-025AL","INCLINATION":"53.2172","RA_OF_ASC_NODE":"359.4183","MEAN_ANOMALY":"145.5762","PERIAPSIS":"348.865"},{"TLE_LINE1":"1 51991U 22025AM  22096.91667824 -.00713410  00000-0 -76420-2 0  9997","PERIOD":"91.988","APOAPSIS":"372.897","TIME_SYSTEM":"UTC","OBJECT_NAME":"STARLINK-3652","ECCENTRICITY":"0.00012510","OBJECT_TYPE":"PAYLOAD","EPOCH":"2022-04-06T22:00:00.999936","ARG_OF_PERICENTER":"81.7745","MEAN_MOTION_DDOT":"0.0000000000000","OBJECT_ID":"2022-025AM","FILE":"3391320","CLASSIFICATION_TYPE":"U","PERIAPSIS":"371.208","MEAN_ANOMALY":"106.6663","RA_OF_ASC_NODE":"359.5243","INCLINATION":"53.2173","GP_ID":"200628371","REV_AT_EPOCH":"370","MEAN_MOTION":"15.65413199","COUNTRY_CODE":"US","DECAY_DATE":null,"SEMIMAJOR_AXIS":"6750.188","MEAN_MOTION_DOT":"-0.00713410","SITE":"AFETR","EPHEMERIS_TYPE":"0","MEAN_ELEMENT_THEORY":"SGP4","RCS_SIZE":"LARGE","ELEMENT_SET_NO":"999","TLE_LINE2":"2 51991  53.2173 359.5243 0001251  81.7745 106.6663 15.65413199  3702","CENTER_NAME":"EARTH","LAUNCH_DATE":"2022-03-09","REF_FRAME":"TEME","NORAD_CAT_ID":"51991","BSTAR":"-0.00764200000000"},{"EPOCH":"2022-04-06T22:00:00.999936","OBJECT_TYPE":"PAYLOAD","MEAN_MOTION_DDOT":"0.0000000000000","ARG_OF_PERICENTER":"119.0292","CLASSIFICATION_TYPE":"U","FILE":"3391320","OBJECT_ID":"2022-025AN","INCLINATION":"53.2171","RA_OF_ASC_NODE":"359.4143","PERIAPSIS":"348.833","MEAN_ANOMALY":"145.6379","TLE_LINE1":"1 51992U 22025AN  22096.91667824 -.00019534  00000-0 -13524-3 0  9991","TIME_SYSTEM":"UTC","APOAPSIS":"350.844","PERIOD":"91.535","ECCENTRICITY":"0.00014940","OBJECT_NAME":"STARLINK-3643","MEAN_MOTION_DOT":"-0.00019534","RCS_SIZE":"LARGE","MEAN_ELEMENT_THEORY":"SGP4","EPHEMERIS_TYPE":"0","SITE":"AFETR","LAUNCH_DATE":"2022-03-09","CENTER_NAME":"EARTH","TLE_LINE2":"2 51992  53.2171 359.4143 0001494 119.0292 145.6379 15.73172568  3708","ELEMENT_SET_NO":"999","BSTAR":"-0.00013524000000","NORAD_CAT_ID":"51992","REF_FRAME":"TEME","REV_AT_EPOCH":"370","GP_ID":"200628656","MEAN_MOTION":"15.73172568","DECAY_DATE":null,"COUNTRY_CODE":"US","SEMIMAJOR_AXIS":"6727.973"},{"OBJECT_NAME":"STARLINK-3648","ECCENTRICITY":"0.00012560","TLE_LINE1":"1 51993U 22025AP  22096.91667824 -.00713522  00000-0 -75260-2 0  9994","PERIOD":"91.966","APOAPSIS":"371.798","TIME_SYSTEM":"UTC","OBJECT_ID":"2022-025AP","CLASSIFICATION_TYPE":"U","FILE":"3391320","PERIAPSIS":"370.103","MEAN_ANOMALY":"117.5958","RA_OF_ASC_NODE":"359.5226","INCLINATION":"53.2174","OBJECT_TYPE":"PAYLOAD","EPOCH":"2022-04-06T22:00:00.999936","MEAN_MOTION_DDOT":"0.0000000000000","ARG_OF_PERICENTER":"79.6204","COUNTRY_CODE":"US","DECAY_DATE":null,"SEMIMAJOR_AXIS":"6749.085","GP_ID":"200628150","REV_AT_EPOCH":"370","MEAN_MOTION":"15.65796687","ELEMENT_SET_NO":"999","TLE_LINE2":"2 51993  53.2174 359.5226 0001256  79.6204 117.5958 15.65796687  3701","CENTER_NAME":"EARTH","LAUNCH_DATE":"2022-03-09","NORAD_CAT_ID":"51993","REF_FRAME":"TEME","BSTAR":"-0.00752600000000","MEAN_MOTION_DOT":"-0.00713522","SITE":"AFETR","EPHEMERIS_TYPE":"0","MEAN_ELEMENT_THEORY":"SGP4","RCS_SIZE":"LARGE"},{"TIME_SYSTEM":"UTC","APOAPSIS":"350.448","PERIOD":"91.534","TLE_LINE1":"1 51994U 22025AQ  22096.91667824 -.00005908  00000-0 -37719-4 0  9996","ECCENTRICITY":"0.00009950","OBJECT_NAME":"STARLINK-3647","MEAN_MOTION_DDOT":"0.0000000000000","ARG_OF_PERICENTER":"127.2775","EPOCH":"2022-04-06T22:00:00.999936","OBJECT_TYPE":"PAYLOAD","INCLINATION":"53.2173","RA_OF_ASC_NODE":"359.4137","MEAN_ANOMALY":"138.0097","PERIAPSIS":"349.109","CLASSIFICATION_TYPE":"U","FILE":"3391320","OBJECT_ID":"2022-025AQ","MEAN_MOTION":"15.73193553","REV_AT_EPOCH":"370","GP_ID":"200628270","SEMIMAJOR_AXIS":"6727.914","DECAY_DATE":null,"COUNTRY_CODE":"US","RCS_SIZE":"LARGE","MEAN_ELEMENT_THEORY":"SGP4","SITE":"AFETR","EPHEMERIS_TYPE":"0","MEAN_MOTION_DOT":"-0.00005908","BSTAR":"-0.00003771900000","NORAD_CAT_ID":"51994","REF_FRAME":"TEME","LAUNCH_DATE":"2022-03-09","CENTER_NAME":"EARTH","TLE_LINE2":"2 51994  53.2173 359.4137 0000995 127.2775 138.0097 15.73193553  3707","ELEMENT_SET_NO":"999"},{"DECAY_DATE":null,"COUNTRY_CODE":"US","SEMIMAJOR_AXIS":"6727.885","REV_AT_EPOCH":"370","GP_ID":"200628049","MEAN_MOTION":"15.73203601","LAUNCH_DATE":"2022-03-09","CENTER_NAME":"EARTH","TLE_LINE2":"2 51995  53.2180 359.4174 0001270 118.6324 144.7272 15.73203601  3703","ELEMENT_SET_NO":"999","BSTAR":"-0.00025284000000","NORAD_CAT_ID":"51995","REF_FRAME":"TEME","MEAN_MOTION_DOT":"-0.00035958","RCS_SIZE":"LARGE","MEAN_ELEMENT_THEORY":"SGP4","EPHEMERIS_TYPE":"0","SITE":"AFETR","ECCENTRICITY":"0.00012700","OBJECT_NAME":"STARLINK-3636","TLE_LINE1":"1 51995U 22025AR  22096.91667824 -.00035958  00000-0 -25284-3 0  9998","TIME_SYSTEM":"UTC","APOAPSIS":"350.604","PERIOD":"91.533","CLASSIFICATION_TYPE":"U","FILE":"3391320","OBJECT_ID":"2022-025AR","INCLINATION":"53.2180","RA_OF_ASC_NODE":"359.4174","MEAN_ANOMALY":"144.7272","PERIAPSIS":"348.895","EPOCH":"2022-04-06T22:00:00.999936","OBJECT_TYPE":"PAYLOAD","MEAN_MOTION_DDOT":"0.0000000000000","ARG_OF_PERICENTER":"118.6324"},{"ARG_OF_PERICENTER":"114.6258","MEAN_MOTION_DDOT":"0.0000000000000","EPOCH":"2022-04-06T22:00:00.999936","OBJECT_TYPE":"PAYLOAD","RA_OF_ASC_NODE":"359.4120","PERIAPSIS":"348.999","MEAN_ANOMALY":"151.3040","INCLINATION":"53.2175","OBJECT_ID":"2022-025AS","CLASSIFICATION_TYPE":"U","FILE":"3391320","APOAPSIS":"350.462","PERIOD":"91.533","TIME_SYSTEM":"UTC","TLE_LINE1":"1 51996U 22025AS  22096.91667824 -.00062824  00000-0 -44636-3 0  9993","OBJECT_NAME":"STARLINK-3538","ECCENTRICITY":"0.00010870","MEAN_ELEMENT_THEORY":"SGP4","EPHEMERIS_TYPE":"0","SITE":"AFETR","RCS_SIZE":"LARGE","MEAN_MOTION_DOT":"-0.00062824","NORAD_CAT_ID":"51996","REF_FRAME":"TEME","BSTAR":"-0.00044636000000","TLE_LINE2":"2 51996  53.2175 359.4120 0001087 114.6258 151.3040 15.73210493  3701","ELEMENT_SET_NO":"999","LAUNCH_DATE":"2022-03-09","CENTER_NAME":"EARTH","MEAN_MOTION":"15.73210493","GP_ID":"200628575","REV_AT_EPOCH":"370","SEMIMAJOR_AXIS":"6727.865","COUNTRY_CODE":"US","DECAY_DATE":null},{"BSTAR":"-0.00043486000000","REF_FRAME":"TEME","NORAD_CAT_ID":"51997","LAUNCH_DATE":"2022-03-09","CENTER_NAME":"EARTH","TLE_LINE2":"2 51997  53.2170 359.4151 0001108 127.2654 136.7600 15.73211935  3706","ELEMENT_SET_NO":"999","RCS_SIZE":"LARGE","MEAN_ELEMENT_THEORY":"SGP4","EPHEMERIS_TYPE":"0","SITE":"AFETR","MEAN_MOTION_DOT":"-0.00061236","SEMIMAJOR_AXIS":"6727.861","DECAY_DATE":null,"COUNTRY_CODE":"US","MEAN_MOTION":"15.73211935","REV_AT_EPOCH":"370","GP_ID":"200628473","INCLINATION":"53.2170","RA_OF_ASC_NODE":"359.4151","MEAN_ANOMALY":"136.7600","PERIAPSIS":"348.981","CLASSIFICATION_TYPE":"U","FILE":"3391320","OBJECT_ID":"2022-025AT","ARG_OF_PERICENTER":"127.2654","MEAN_MOTION_DDOT":"0.0000000000000","EPOCH":"2022-04-06T22:00:00.999936","OBJECT_TYPE":"PAYLOAD","ECCENTRICITY":"0.00011080","OBJECT_NAME":"STARLINK-3589","TIME_SYSTEM":"UTC","APOAPSIS":"350.472","PERIOD":"91.532","TLE_LINE1":"1 51997U 22025AT  22096.91667824 -.00061236  00000-0 -43486-3 0  9992"},{"ECCENTRICITY":"0.00010620","OBJECT_NAME":"STARLINK-3618","TLE_LINE1":"1 51998U 22025AU  22096.91667824  .00027748  00000-0  20184-3 0  9991","TIME_SYSTEM":"UTC","APOAPSIS":"350.598","PERIOD":"91.536","CLASSIFICATION_TYPE":"U","FILE":"3391320","OBJECT_ID":"2022-025AU","INCLINATION":"53.2176","RA_OF_ASC_NODE":"359.4099","MEAN_ANOMALY":"146.2811","PERIAPSIS":"349.169","EPOCH":"2022-04-06T22:00:00.999936","OBJECT_TYPE":"PAYLOAD","MEAN_MOTION_DDOT":"0.0000000000000","ARG_OF_PERICENTER":"120.9247","DECAY_DATE":null,"COUNTRY_CODE":"US","SEMIMAJOR_AXIS":"6728.018","REV_AT_EPOCH":"370","GP_ID":"200627948","MEAN_MOTION":"15.73156807","LAUNCH_DATE":"2022-03-09","CENTER_NAME":"EARTH","TLE_LINE2":"2 51998  53.2176 359.4099 0001062 120.9247 146.2811 15.73156807  3707","ELEMENT_SET_NO":"999","BSTAR":"0.00020184000000","NORAD_CAT_ID":"51998","REF_FRAME":"TEME","MEAN_MOTION_DOT":"0.00027748","RCS_SIZE":"LARGE","MEAN_ELEMENT_THEORY":"SGP4","SITE":"AFETR","EPHEMERIS_TYPE":"0"}];
